{
  "type": "FeatureCollection",
  "features": [
    {
      "type": "Feature",
      "properties": {
        "norad_id": 54741,
        "name": "GALAXY 35 (G-35)",
        "group": "intelsat",
        "lat": 0.03495876689606397,
        "lon": 54.21112816177329,
        "alt_km": 35796.841856141684,
        "timestamp": "2025-12-05T04:52:14.989699+00:00",
        "meta_object_name": "GALAXY 35 (G-35)",
        "meta_object_id": "2022-170A",
        "meta_epoch": "2025-12-04T13:16:59.656800",
        "meta_mean_motion": 1.00270528,
        "meta_eccentricity": 0.0002769,
        "meta_inclination": 0.0151,
        "meta_ra_of_asc_node": 0.0134,
        "meta_arg_of_pericenter": 262.0557,
        "meta_mean_anomaly": 277.6941,
        "meta_ephemeris_type": 0,
        "meta_classification_type": "U",
        "meta_norad_cat_id": 54741,
        "meta_element_set_no": 999,
        "meta_rev_at_epoch": 1094,
        "meta_bstar": 0,
        "meta_mean_motion_dot": 0,
        "meta_mean_motion_ddot": 0,
        "tle_line1": "1 54741U 22170A   25338.55346825  .00000000  00000+0  00000+0 0  9990",
        "tle_line2": "2 54741   0.0151   0.0134 0002769 262.0557 277.6941  1.00270528 10944"
      },
      "geometry": {
        "type": "Point",
        "coordinates": [
          54.21112816177329,
          0.03495876689606397
        ]
      }
    },
    {
      "type": "Feature",
      "properties": {
        "norad_id": 54742,
        "name": "GALAXY 36 (G-36)",
        "group": "intelsat",
        "lat": 0.026141962643412942,
        "lon": 58.31167278848452,
        "alt_km": 35788.80548830736,
        "timestamp": "2025-12-05T04:52:14.989709+00:00",
        "meta_object_name": "GALAXY 36 (G-36)",
        "meta_object_id": "2022-170B",
        "meta_epoch": "2025-12-04T13:18:14.537952",
        "meta_mean_motion": 1.00271016,
        "meta_eccentricity": 6.02e-05,
        "meta_inclination": 0.0144,
        "meta_ra_of_asc_node": 275.7548,
        "meta_arg_of_pericenter": 336.826,
        "meta_mean_anomaly": 291.6079,
        "meta_ephemeris_type": 0,
        "meta_classification_type": "U",
        "meta_norad_cat_id": 54742,
        "meta_element_set_no": 999,
        "meta_rev_at_epoch": 1082,
        "meta_bstar": 0,
        "meta_mean_motion_dot": -1.71e-06,
        "meta_mean_motion_ddot": 0,
        "tle_line1": "1 54742U 22170B   25338.55433493 -.00000171  00000+0  00000+0 0  9999",
        "tle_line2": "2 54742   0.0144 275.7548 0000602 336.8260 291.6079  1.00271016 10820"
      },
      "geometry": {
        "type": "Point",
        "coordinates": [
          58.31167278848452,
          0.026141962643412942
        ]
      }
    },
    {
      "type": "Feature",
      "properties": {
        "norad_id": 57493,
        "name": "GALAXY 37 (G-37)",
        "group": "intelsat",
        "lat": 0.03273455704151963,
        "lon": 20.338356803337916,
        "alt_km": 35792.23900165352,
        "timestamp": "2025-12-05T04:52:14.989724+00:00",
        "meta_object_name": "GALAXY 37 (G-37)",
        "meta_object_id": "2023-112A",
        "meta_epoch": "2025-12-04T14:10:38.722944",
        "meta_mean_motion": 1.00269836,
        "meta_eccentricity": 0.0002385,
        "meta_inclination": 0.012,
        "meta_ra_of_asc_node": 308.4248,
        "meta_arg_of_pericenter": 307.8921,
        "meta_mean_anomaly": 263.0163,
        "meta_ephemeris_type": 0,
        "meta_classification_type": "U",
        "meta_norad_cat_id": 57493,
        "meta_element_set_no": 999,
        "meta_rev_at_epoch": 859,
        "meta_bstar": 0,
        "meta_mean_motion_dot": 6.3e-07,
        "meta_mean_motion_ddot": 0,
        "tle_line1": "1 57493U 23112A   25338.59072596  .00000063  00000+0  00000+0 0  9998",
        "tle_line2": "2 57493   0.0120 308.4248 0002385 307.8921 263.0163  1.00269836  8598"
      },
      "geometry": {
        "type": "Point",
        "coordinates": [
          20.338356803337916,
          0.03273455704151963
        ]
      }
    }
  ]
}